From: horizons@ssd.jpl.nasa.gov (Horizons Ephemeris System)
Subject: [Horizons] SMALL BODY #C(500@10)_T(141P/Machholz 2) (1/1)
Date: March 1, 2021 at 1:22:55 PM PST

Automated mail xmit by MAIL_REQUEST, PID= 2301 Mon Mar  1 13:22:55 2021
++++++++++++++++++++++++++++++++ (part 1 of 1)  +++++++++++++++++++++++++++++++
*******************************************************************************
JPL/HORIZONS                   141P/Machholz 2             2021-Mar-01 13:22:55
Rec #:90001030 (+COV) Soln.date: 2021-Feb-01_11:47:53    # obs: 580 (2015-2021)

IAU76/J2000 helio. ecliptic osc. elements (au, days, deg., period=Julian yrs):

 EPOCH=  2458398.5 ! 2018-Oct-07.0000000 (TDB)    RMSW= n.a.
  EC= .7393025188298299   QR= .7948513745065999   TP= 2459198.2063114694
  OM= 241.8690256534766   W= 153.7516895155063    IN= 13.99274175328805
  A= 3.048941520028578    MA= 211.9491327492437   ADIST= 5.303031665550556
  PER= 5.3239241088549    N= .185131543           ANGMOM= .020226092
  DAN= 4.10319            DDN= .83129             L= 36.2990093
  B= 6.1388658            MOID= .104479           TP= 2020-Dec-14.7063114694

Comet physical (GM= km^3/s^2; RAD= km):
  GM= n.a.                RAD= n.a.
  M1=  17.6     M2=  n.a.     k1=  11.75  k2= n.a.     PHCOF= n.a.

Comet non-gravitational force model (AMRAT=m^2/kg;A1-A3=au/d^2;DT=days;R0=au):
  AMRAT=  0.                                      DT=  0.
  A1= 1.067596822977E-9   A2= -1.412742137909E-9  A3= 0.
Standard model:
  ALN=  .1112620426   NK=  4.6142   NM=  2.15     NN=  5.093    R0=  2.808

COMET comments 
1: soln ref.= JPL#K202/2, data arc: 2015-05-24 to 2021-01-26
2: k1=11.75;
*******************************************************************************


*******************************************************************************
Ephemeris / MAIL_REQUEST Mon Mar  1 13:22:55 2021 Pasadena, USA  / Horizons
*******************************************************************************
Target body name: 141P/Machholz 2                 {source: JPL#K202/2}
Center body name: Sun (10)                        {source: DE431}
Center-site name: BODY CENTER
*******************************************************************************
Start time      : A.D. 1990-Jan-01 00:00:00.0000 TDB
Stop  time      : A.D. 2020-Dec-31 00:00:00.0000 TDB
Step-size       : 10080 minutes
*******************************************************************************
Center geodetic : 0.00000000,0.00000000,0.0000000 {E-lon(deg),Lat(deg),Alt(km)}
Center cylindric: 0.00000000,0.00000000,0.0000000 {E-lon(deg),Dxy(km),Dz(km)}
Center radii    : 696000.0 x 696000.0 x 696000.0 k{Equator, meridian, pole}    
Small perturbers: Yes                             {source: SB431-N16}
Output units    : AU-D
Output type     : GEOMETRIC cartesian states
Output format   : 6 (LT, range, and range-rate)
Reference frame : Ecliptic of J2000.0
*******************************************************************************
Initial IAU76/J2000 heliocentric ecliptic osculating elements (au, days, deg.):
 EPOCH=  2458398.5 ! 2018-Oct-07.0000000 (TDB)    RMSW= n.a.                  
  EC= .7393025188298299   QR= .7948513745065999   TP= 2459198.2063114694      
  OM= 241.8690256534766   W= 153.7516895155063    IN= 13.99274175328805       
 Equivalent ICRF heliocentric equatorial cartesian coordinates (au, au/d):
  X=-3.758867321924240E+00  Y=-3.094508006751358E+00  Z=-1.787338468935581E+00
 VX= 3.539970246774219E-03 VY=-2.120102112317626E-03 VZ= 1.691985274568762E-04
Comet physical (GM= km^3/s^2; RAD= km):                                        
  GM= n.a.                RAD= n.a.                                           
  M1=  17.6     M2=  n.a.     k1=  11.75  k2= n.a.     PHCOF= n.a.            
Comet non-gravitational force model (AMRAT=m^2/kg;A1-A3=au/d^2;DT=days;R0=au): 
  AMRAT=  0.                                      DT=  0.                     
  A1= 1.067596822977E-9   A2= -1.412742137909E-9  A3= 0.                      
Standard model:                                                               
  ALN=  .1112620426   NK=  4.6142   NM=  2.15     NN=  5.093    R0=  2.808    
*******************************************************************************
           JDTDB,            Calendar Date (TDB),                     LT,                     RG,                     RR,
**************************************************************************************************************************
$$SOE
2448816.500000000, A.D. 1992-Jul-13 00:00:00.0000,  2.986583705214788E-02,  5.171109385902862E+00, -1.304030897862304E-03,
2448823.500000000, A.D. 1992-Jul-20 00:00:00.0000,  2.981194810154559E-02,  5.161778803345627E+00, -1.361878872178664E-03,
2448830.500000000, A.D. 1992-Jul-27 00:00:00.0000,  2.975571685977274E-02,  5.152042665644051E+00, -1.419905152662312E-03,
2448837.500000000, A.D. 1992-Aug-03 00:00:00.0000,  2.969713595379905E-02,  5.141899696197513E+00, -1.478117864236476E-03,
2448844.500000000, A.D. 1992-Aug-10 00:00:00.0000,  2.963619768320124E-02,  5.131348561719050E+00, -1.536525069110035E-03,
2448851.500000000, A.D. 1992-Aug-17 00:00:00.0000,  2.957289402324534E-02,  5.120387872769053E+00, -1.595134763965095E-03,
2448858.500000000, A.D. 1992-Aug-24 00:00:00.0000,  2.950721662166802E-02,  5.109016183197948E+00, -1.653955297446346E-03,
2448865.500000000, A.D. 1992-Aug-31 00:00:00.0000,  2.943915676144402E-02,  5.097231983699604E+00, -1.712996558486483E-03,
2448872.500000000, A.D. 1992-Sep-07 00:00:00.0000,  2.936870529723320E-02,  5.085033690807458E+00, -1.772269403185001E-03,
2448879.500000000, A.D. 1992-Sep-14 00:00:00.0000,  2.929585267612276E-02,  5.072419650485937E+00, -1.831782890934358E-03,
2448886.500000000, A.D. 1992-Sep-21 00:00:00.0000,  2.922058900632765E-02,  5.059388150025547E+00, -1.891545109871293E-03,
2448893.500000000, A.D. 1992-Sep-28 00:00:00.0000,  2.914290405900968E-02,  5.045937418357860E+00, -1.951564746282322E-03,
2448900.500000000, A.D. 1992-Oct-05 00:00:00.0000,  2.906278724011650E-02,  5.032065621179571E+00, -2.011851138117248E-03,
2448907.500000000, A.D. 1992-Oct-12 00:00:00.0000,  2.898022756899292E-02,  5.017770857249173E+00, -2.072414043346296E-03,
2448914.500000000, A.D. 1992-Oct-19 00:00:00.0000,  2.889521366415068E-02,  5.003051155923061E+00, -2.133263520884377E-03,
2448921.500000000, A.D. 1992-Oct-26 00:00:00.0000,  2.880773373232387E-02,  4.987904475260541E+00, -2.194409874851488E-03,
2448928.500000000, A.D. 1992-Nov-02 00:00:00.0000,  2.871777555952090E-02,  4.972328700474523E+00, -2.255863604891455E-03,
2448935.500000000, A.D. 1992-Nov-09 00:00:00.0000,  2.862532650431539E-02,  4.956321642769885E+00, -2.317635349105278E-03,
2448942.500000000, A.D. 1992-Nov-16 00:00:00.0000,  2.853037349175308E-02,  4.939881038288472E+00, -2.379735963303518E-03,
2448949.500000000, A.D. 1992-Nov-23 00:00:00.0000,  2.843290299240393E-02,  4.923004544482088E+00, -2.442177292059016E-03,
2448956.500000000, A.D. 1992-Nov-30 00:00:00.0000,  2.833290095741619E-02,  4.905689728867459E+00, -2.504973192199586E-03,
2448963.500000000, A.D. 1992-Dec-07 00:00:00.0000,  2.823035276605687E-02,  4.887934059943142E+00, -2.568137516909623E-03,
2448970.500000000, A.D. 1992-Dec-14 00:00:00.0000,  2.812524327515203E-02,  4.869734915749847E+00, -2.631682372455861E-03,
2448977.500000000, A.D. 1992-Dec-21 00:00:00.0000,  2.801755685823128E-02,  4.851089590648099E+00, -2.695619865957460E-03,
2448984.500000000, A.D. 1992-Dec-28 00:00:00.0000,  2.790727738214550E-02,  4.831995291269719E+00, -2.759962963344559E-03,
2448991.500000000, A.D. 1993-Jan-04 00:00:00.0000,  2.779438817480453E-02,  4.812449130931781E+00, -2.824725317985694E-03,
2448998.500000000, A.D. 1993-Jan-11 00:00:00.0000,  2.767887200169925E-02,  4.792448125571532E+00, -2.889921077113240E-03,
2449005.500000000, A.D. 1993-Jan-18 00:00:00.0000,  2.756071104807939E-02,  4.771989190660585E+00, -2.955564786854075E-03,
2449012.500000000, A.D. 1993-Jan-25 00:00:00.0000,  2.743988690406421E-02,  4.751069138626896E+00, -3.021671332282015E-03,
2449019.500000000, A.D. 1993-Feb-01 00:00:00.0000,  2.731638055225117E-02,  4.729684676709291E+00, -3.088255869591929E-03,
2449026.500000000, A.D. 1993-Feb-08 00:00:00.0000,  2.719017235811161E-02,  4.707832405294518E+00, -3.155333771625115E-03,
2449033.500000000, A.D. 1993-Feb-15 00:00:00.0000,  2.706124205815808E-02,  4.685508815868485E+00, -3.222920886851765E-03,
2449040.500000000, A.D. 1993-Feb-22 00:00:00.0000,  2.692956872013804E-02,  4.662710284124014E+00, -3.291034697222392E-03,
2449047.500000000, A.D. 1993-Mar-01 00:00:00.0000,  2.679513066239590E-02,  4.639433055998813E+00, -3.359694495935382E-03,
2449054.500000000, A.D. 1993-Mar-08 00:00:00.0000,  2.665790543546397E-02,  4.615673244488045E+00, -3.428918550484657E-03,
2449061.500000000, A.D. 1993-Mar-15 00:00:00.0000,  2.651786987993184E-02,  4.591426839664100E+00, -3.498724048644429E-03,
2449068.500000000, A.D. 1993-Mar-22 00:00:00.0000,  2.637500013113228E-02,  4.566689709487939E+00, -3.569128860466366E-03,
2449075.500000000, A.D. 1993-Mar-29 00:00:00.0000,  2.622927158133283E-02,  4.541457593262763E+00, -3.640151850892882E-03,
2449082.500000000, A.D. 1993-Apr-05 00:00:00.0000,  2.608065884314514E-02,  4.515726095298544E+00, -3.711812697577740E-03,
2449089.500000000, A.D. 1993-Apr-12 00:00:00.0000,  2.592913571914829E-02,  4.489490679652456E+00, -3.784131785660643E-03,
2449096.500000000, A.D. 1993-Apr-19 00:00:00.0000,  2.577467517408336E-02,  4.462746665314524E+00, -3.857130174878161E-03,
2449103.500000000, A.D. 1993-Apr-26 00:00:00.0000,  2.561724930794095E-02,  4.435489221547874E+00, -3.930829580273411E-03,
2449110.500000000, A.D. 1993-May-03 00:00:00.0000,  2.545682933014440E-02,  4.407713363418681E+00, -4.005252336478019E-03,
2449117.500000000, A.D. 1993-May-10 00:00:00.0000,  2.529338553452174E-02,  4.379413947462711E+00, -4.080421432313858E-03,
